NORAD_CAT_ID,OBJECT_NAME,OBJECT_TYPE,EPOCH,MEAN_MOTION,ECCENTRICITY,INCLINATION,RA_OF_ASC_NODE,ARG_OF_PERICENTER,MEAN_ANOMALY,BSTAR,MEAN_MOTION_DOT,MEAN_MOTION_DDOT,TLE_LINE0,TLE_LINE1,TLE_LINE2,SEMIMAJOR_AXIS,PERIOD,APOGEE,PERIGEE,DECAYED
53780.0,STARLINK-4678,PAYLOAD,2024-08-21 09:33:48,15.08839423,0.000154,53.2168,292.011,107.4512,252.6648,0.00015782,2.225e-05,0.0,0 STARLINK-4678,1 53780U 22111H   24234.39848254  .00002225  00000-0  15782-3 0  9995,2 53780  53.2168 292.0110 0001540 107.4512 252.6648 15.08839423107548,6917.882,95.438,540.813,538.682,0.0
53780.0,STARLINK-4678,PAYLOAD,2024-08-21 20:41:31,15.0883863,0.0001399,53.2158,289.9284,85.5393,274.5759,0.00022177,3.243e-05,0.0,0 STARLINK-4678,1 53780U 22111H   24234.86216566  .00003243  00000-0  22177-3 0  9999,2 53780  53.2158 289.9284 0001399  85.5393 274.5759 15.08838630108422,6917.885,95.438,540.717,538.782,0.0
